COMMENT,ORIGINATOR,NORAD_CAT_ID,OBJECT_NAME,OBJECT_TYPE,CLASSIFICATION_TYPE,INTLDES,EPOCH,EPOCH_MICROSECONDS,MEAN_MOTION,ECCENTRICITY,INCLINATION,RA_OF_ASC_NODE,ARG_OF_PERICENTER,MEAN_ANOMALY,EPHEMERIS_TYPE,ELEMENT_SET_NO,REV_AT_EPOCH,BSTAR,MEAN_MOTION_DOT,MEAN_MOTION_DDOT,FILE,TLE_LINE0,TLE_LINE1,TLE_LINE2,OBJECT_ID,OBJECT_NUMBER,SEMIMAJOR_AXIS,PERIOD,APOGEE,PERIGEE,DECAYED
"GENERATED VIA SPACETRACK.ORG API","18 SPCS","55095","SPACEBEE-162","PAYLOAD","U","23001CQ","2023-07-16 03:47:52","339488","15.20802169","0.0013261","97.4756","257.0031","256.5068","103.469","0","999","2950","0.00066689","0.00014684","0","3959486","0 SPACEBEE-162","1 55095U 23001CQ  23197.15824467  .00014684  00000-0  66689-3 0  9990","2 55095  97.4756 257.0031 0013261 256.5068 103.4690 15.20802169 29500","2023-001CQ","55095","6881.557","94.687","512.547","494.296","0"
"GENERATED VIA SPACETRACK.ORG API","18 SPCS","55095","SPACEBEE-162","PAYLOAD","U","23001CQ","2023-07-17 16:07:01","559712","15.20853989","0.0013384","97.4749","258.5046","250.8391","109.1396","0","999","2973","0.0008149","0.00017994","0","3960649","0 SPACEBEE-162","1 55095U 23001CQ  23198.67154583  .00017994  00000-0  81490-3 0  9997","2 55095  97.4749 258.5046 0013384 250.8391 109.1396 15.20853989 29733","2023-001CQ","55095","6881.400","94.684","512.475","494.055","0"
"GENERATED VIA SPACETRACK.ORG API","18 SPCS","55095","SPACEBEE-162","PAYLOAD","U","23001CQ","2023-07-19 02:51:21","411648","15.20911245","0.0013537","97.4745","259.9406","245.7253","114.2569","0","999","2995","0.00083606","0.00018497","0","3961853","0 SPACEBEE-162","1 55095U 23001CQ  23200.11899782  .00018497  00000-0  83606-3 0  9997","2 55095  97.4745 259.9406 0013537 245.7253 114.2569 15.20911245 29957","2023-001CQ","55095","6881.228","94.680","512.408","493.778","0"
"GENERATED VIA SPACETRACK.ORG API","18 SPCS","55095","SPACEBEE-162","PAYLOAD","U","23001CQ","2023-07-20 15:10:21","372384","15.20959742","0.0013659","97.4743","261.4422","239.8802","120.108","0","999","3018","0.00072331","0.00016011","0","3962869","0 SPACEBEE-162","1 55095U 23001CQ  23201.63219181  .00016011  00000-0  72331-3 0  9997","2 55095  97.4743 261.4422 0013659 239.8802 120.1080 15.20959742 30185","2023-001CQ","55095","6881.081","94.677","512.345","493.548","0"
"GENERATED VIA SPACETRACK.ORG API","18 SPCS","55095","SPACEBEE-162","PAYLOAD","U","23001CQ","2023-07-23 03:10:16","893408","15.21048427","0.0013815","97.4736","263.9238","230.765","129.236","0","999","3056","0.00078497","0.00017431","0","3963756","0 SPACEBEE-162","1 55095U 23001CQ  23204.13213997  .00017431  00000-0  78497-3 0  9990","2 55095  97.4736 263.9238 0013815 230.7650 129.2360 15.21048427 30567","2023-001CQ","55095","6880.814","94.672","512.185","493.173","0"
"GENERATED VIA SPACETRACK.ORG API","18 SPCS","55095","SPACEBEE-162","PAYLOAD","U","23001CQ","2023-07-24 13:54:21","198528","15.21099264","0.0013924","97.4736","265.36","225.5486","134.4611","0","999","3078","0.00077305","0.00017191","0","3963759","0 SPACEBEE-162","1 55095U 23001CQ  23205.57941202  .00017191  00000-0  77305-3 0  9996","2 55095  97.4736 265.3600 0013924 225.5486 134.4611 15.21099264 30782","2023-001CQ","55095","6880.661","94.668","512.106","492.945","0"
"GENERATED VIA SPACETRACK.ORG API","18 SPCS","55095","SPACEBEE-162","PAYLOAD","U","23001CQ","2023-07-25 23:03:37","758816","15.21147943","0.0013979","97.474","266.7308","220.2807","139.7394","0","999","3099","0.00077185","0.00017189","0","3963761","0 SPACEBEE-162","1 55095U 23001CQ  23206.96085369  .00017189  00000-0  77185-3 0  9996","2 55095  97.4740 266.7308 0013979 220.2807 139.7394 15.21147943 30993","2023-001CQ","55095","6880.514","94.665","511.997","492.761","0"
"GENERATED VIA SPACETRACK.ORG API","18 SPCS","55095","SPACEBEE-162","PAYLOAD","U","23001CQ","2023-07-26 21:09:46","478016","15.21187722","0.0014162","97.4737","267.6449","216.8629","143.1634","0","999","3113","0.00093869","0.00020956","0","3963989","0 SPACEBEE-162","1 55095U 23001CQ  23207.88178794  .00020956  00000-0  93869-3 0  9996","2 55095  97.4737 267.6449 0014162 216.8629 143.1634 15.21187722 31135","2023-001CQ","55095","6880.394","94.663","512.003","492.515","0"
"GENERATED VIA SPACETRACK.ORG API","18 SPCS","55095","SPACEBEE-162","PAYLOAD","U","23001CQ","2023-07-27 03:28:40","11456","15.2119942","0.0014187","97.4738","267.906","215.9995","144.0286","0","999","3117","0.00093438","0.00020867","0","3964303","0 SPACEBEE-162","1 55095U 23001CQ  23208.14490754  .00020867  00000-0  93438-3 0  9992","2 55095  97.4738 267.9060 0014187 215.9995 144.0286 15.21199420 31176","2023-001CQ","55095","6880.359","94.662","511.985","492.462","0"
"GENERATED VIA SPACETRACK.ORG API","18 SPCS","55095","SPACEBEE-162","PAYLOAD","U","23001CQ","2023-07-27 03:28:40","11456","15.2119942","0.0014187","97.4738","267.906","215.9995","144.0286","0","999","3117","0.00093438","0.00020867","0","3964647","0 SPACEBEE-162","1 55095U 23001CQ  23208.14490754  .00020867  00000-0  93438-3 0  9992","2 55095  97.4738 267.9060 0014187 215.9995 144.0286 15.21199420 31176","2023-001CQ","55095","6880.359","94.662","511.985","492.462","0"
"GENERATED VIA SPACETRACK.ORG API","18 SPCS","55095","SPACEBEE-162","PAYLOAD","U","23001CQ","2023-07-28 09:28:22","471392","15.2123985","0.0014296","97.4742","269.1462","211.9261","148.111","0","999","3136","0.00070652","0.0001577","0","3965496","0 SPACEBEE-162","1 55095U 23001CQ  23209.39470453  .00015770  00000-0  70652-3 0  9994","2 55095  97.4742 269.1462 0014296 211.9261 148.1110 15.21239850 31368","2023-001CQ","55095","6880.237","94.660","511.938","492.266","0"
"GENERATED VIA SPACETRACK.ORG API","18 SPCS","55095","SPACEBEE-162","PAYLOAD","U","23001CQ","2023-07-28 09:28:22","471392","15.2123985","0.0014296","97.4742","269.1462","211.9261","148.111","0","999","3136","0.00070652","0.0001577","0","3965518","0 SPACEBEE-162","1 55095U 23001CQ  23209.39470453  .00015770  00000-0  70652-3 0  9994","2 55095  97.4742 269.1462 0014296 211.9261 148.1110 15.21239850 31368","2023-001CQ","55095","6880.237","94.660","511.938","492.266","0"
"GENERATED VIA SPACETRACK.ORG API","18 SPCS","55095","SPACEBEE-162","PAYLOAD","U","23001CQ","2023-07-29 17:02:44","975328","15.21287206","0.0014395","97.4746","270.452","207.3041","152.7439","0","999","3156","0.00077377","0.00017306","0","3966639","0 SPACEBEE-162","1 55095U 23001CQ  23210.71024277  .00017306  00000-0  77377-3 0  9999","2 55095  97.4746 270.4520 0014395 207.3041 152.7439 15.21287206 31562","2023-001CQ","55095","6880.094","94.657","511.863","492.055","0"
"GENERATED VIA SPACETRACK.ORG API","18 SPCS","55095","SPACEBEE-162","PAYLOAD","U","23001CQ","2023-07-31 02:11:46","671360","15.21340337","0.0014483","97.4745","271.823","202.1695","157.8917","0","999","3177","0.00082381","0.00018462","0","3967744","0 SPACEBEE-162","1 55095U 23001CQ  23212.09151240  .00018462  00000-0  82381-3 0  9998","2 55095  97.4745 271.8230 0014483 202.1695 157.8917 15.21340337 31775","2023-001CQ","55095","6879.934","94.653","511.763","491.835","0"
"GENERATED VIA SPACETRACK.ORG API","18 SPCS","55095","SPACEBEE-162","PAYLOAD","U","23001CQ","2023-08-01 03:27:10","937376","15.21380272","0.0014608","97.474","272.868","198.6292","161.4411","0","999","3193","0.00083521","0.00018742","0","3968681","0 SPACEBEE-162","1 55095U 23001CQ  23213.14387659  .00018742  00000-0  83521-3 0  9998","2 55095  97.4740 272.8680 0014608 198.6292 161.4411 15.21380272 31931","2023-001CQ","55095","6879.813","94.651","511.728","491.628","0"
"GENERATED VIA SPACETRACK.ORG API","18 SPCS","55095","SPACEBEE-162","PAYLOAD","U","23001CQ","2023-08-02 09:26:40","514208","15.21425782","0.001472","97.4734","274.109","194.5786","165.5027","0","999","3212","0.00084529","0.00018995","0","3969721","0 SPACEBEE-162","1 55095U 23001CQ  23214.39352447  .00018995  00000-0  84529-3 0  9992","2 55095  97.4734 274.1090 0014720 194.5786 165.5027 15.21425782 32128","2023-001CQ","55095","6879.676","94.648","511.668","491.414","0"
"GENERATED VIA SPACETRACK.ORG API","18 SPCS","55095","SPACEBEE-162","PAYLOAD","U","23001CQ","2023-08-03 02:48:27","506592","15.21461766","0.0014776","97.4733","274.8275","192.1303","167.9579","0","999","3223","0.0010366","0.00023349","0","3970624","0 SPACEBEE-162","1 55095U 23001CQ  23215.11698503  .00023349  00000-0  10366-2 0  9995","2 55095  97.4733 274.8275 0014776 192.1303 167.9579 15.21461766 32231","2023-001CQ","55095","6879.568","94.646","511.598","491.267","0"
"GENERATED VIA SPACETRACK.ORG API","18 SPCS","55095","SPACEBEE-162","PAYLOAD","U","23001CQ","2023-08-04 02:29:02","355072","15.2149915","0.0014849","97.4731","275.8072","188.7088","171.3892","0","999","3238","0.00087346","0.00019676","0","3971472","0 SPACEBEE-162","1 55095U 23001CQ  23216.10349948  .00019676  00000-0  87346-3 0  9992","2 55095  97.4731 275.8072 0014849 188.7088 171.3892 15.21499150 32388","2023-001CQ","55095","6879.455","94.643","511.535","491.105","0"
"GENERATED VIA SPACETRACK.ORG API","18 SPCS","55095","SPACEBEE-162","PAYLOAD","U","23001CQ","2023-08-05 03:44:17","238048","15.21541427","0.0014941","97.4728","276.852","185.0789","175.0297","0","999","3254","0.00097529","0.00022013","0","3972309","0 SPACEBEE-162","1 55095U 23001CQ  23217.15575507  .00022013  00000-0  97529-3 0  9993","2 55095  97.4728 276.8520 0014941 185.0789 175.0297 15.21541427 32547","2023-001CQ","55095","6879.328","94.641","511.471","490.914","0"
"GENERATED VIA SPACETRACK.ORG API","18 SPCS","55095","SPACEBEE-162","PAYLOAD","U","23001CQ","2023-08-06 08:08:53","20320","15.21591833","0.0015027","97.4724","278.0274","181.4033","178.7163","0","999","3272","0.00078189","0.0001765","0","3973220","0 SPACEBEE-162","1 55095U 23001CQ  23218.33950255  .00017650  00000-0  78189-3 0  9993","2 55095  97.4724 278.0274 0015027 181.4033 178.7163 15.21591833 32729","2023-001CQ","55095","6879.176","94.638","511.378","490.703","0"
